ORBCOMM FM06            
1 25118U 97084G   26185.14026713  .00001490  00000+0  43979-3 0  9999
2 25118  45.0146 331.0976 0000587 195.2185 333.5408 14.47606795496845
ORBCOMM FM04            
1 25159U 98007C   26184.76767985  .00000864  00000+0  34078-3 0  9994
2 25159 107.9628 203.5451 0041774 296.3585  63.3269 14.35770133478976
ORBCOMM FM19            
1 25415U 98046C   26185.21453876  .00001049  00000+0  37865-3 0  9997
2 25415  44.9922 162.6215 0003866 356.8108  17.7374 14.39524790459232
ORBCOMM FM20            
1 25416U 98046D   26185.24149669  .00000692  00000+0  27293-3 0  9990
2 25416  44.9919 170.6041 0002246 308.0969  51.9676 14.38087184459246
ORBCOMM FM27            
1 25481U 98053G   26185.19486952  .00000897  00000+0  33270-3 0  9992
2 25481  45.0047 254.5718 0002265 253.9687 106.0913 14.39172405452680
ORBCOMM FM32            
1 25982U 99065C   26185.11312024  .00000892  00000+0  34470-3 0  9990
2 25982  45.0151  93.1210 0004706 134.6047 225.5186 14.37155468389522
ORBCOMM FM109           
1 40086U 14040A   26185.22008743  .00000530  00000+0  14837-3 0  9998
2 40086  47.0040  10.9564 0001844 291.1135  68.9554 14.58864301636832
ORBCOMM FM110           
1 41182U 15081D   26184.95130184  .00000798  00000+0  20477-3 0  9999
2 41182  47.0023 282.1771 0002979 171.7506 188.3429 14.58907106560070
ORBCOMM FM118           
1 41183U 15081E   26184.78017364  .00000508  00000+0  14361-3 0  9999
2 41183  47.0041 283.3209 0002359 126.6816 233.4287 14.58896285560153
ORBCOMM FM112           
1 41184U 15081F   26185.05835464  .00000592  00000+0  16130-3 0  9999
2 41184  46.9971 190.4662 0004128 283.8368  76.2058 14.58923566561411
ORBCOMM FM113           
1 41185U 15081G   26185.03553732  .00000385  00000+0  11768-3 0  9995
2 41185  46.9987 190.9587 0002614 282.0666  77.9927 14.58873264561399
ORBCOMM FM108           
1 41187U 15081J   26185.13470405  .00000756  00000+0  19610-3 0  9999
2 41187  47.0046 102.0680 0003126 283.0000  77.0537 14.58896570562551
ORBCOMM FM117           
1 41188U 15081K   26185.16882879  .00000726  00000+0  18968-3 0  9997
2 41188  47.0009 100.5362 0003569 287.8149  72.2347 14.58884146562606
ORBCOMM FM116           
1 41189U 15081L   26185.28602116  .00000323  00000+0  10442-3 0  9997
2 41189  47.0003 189.7719 0001086 196.6538 163.4312 14.58899402561433
